CURIUM ONE              
1 60242U 24128H   26068.68697111  .00012574  00000+0  74107-3 0  9992
2 60242  61.9790 197.7537 0050890 110.7183 249.9377 15.10847276 91417
STARLINK-36185          
1 67204U 25304N   26068.67338196  .00001964  00000+0  16881-3 0  9994
2 67204  70.0027 174.4434 0002986 267.6224  92.4593 14.99139633 13888
